ORBCOMM FM20 [+]        
1 25416U 98046D   23363.61337163  .00001017  00000+0  40522-3 0  9996
2 25416  44.9928 192.3834 0000780  90.7079 269.3857 14.34727557327280
ORBCOMM FM16 [-]        
1 25417U 98046E   23363.93225286  .00001396  00000+0  52914-3 0  9992
2 25417  44.9931 187.5477 0004466 127.0046 233.1210 14.35524920327256
ORBCOMM FM15 [-]        
1 25418U 98046F   23363.65589560  .00001359  00000+0  51908-3 0  9991
2 25418  44.9956 192.6134 0004018 126.5783 233.5434 14.35276525327220
ORBCOMM FM14 [-]        
1 25419U 98046G   23362.67115951  .00001609  00000+0  60418-3 0  9996
2 25419  44.9947 196.5343 0002876 106.9228   3.0615 14.35395035327030
ORBCOMM FM13 [+]        
1 25420U 98046H   23363.67863297  .00001144  00000+0  44900-3 0  9994
2 25420  44.9966 195.9644 0004923 110.1308 250.0069 14.34798101326251
ORBCOMM FM21 [-]        
1 25475U 98053A   23363.90479576  .00001180  00000+0  46162-3 0  9993
2 25475  45.0092 279.0665 0001523   1.4361 358.6491 14.34803719320636
ORBCOMM FM22 [-]        
1 25476U 98053B   23364.13469598  .00001279  00000+0  49217-3 0  9996
2 25476  45.0076 275.7515 0002882  32.8234 327.2792 14.35222055320682
ORBCOMM FM23 [-]        
1 25477U 98053C   23364.14413527  .00001220  00000+0  47545-3 0  9997
2 25477  45.0090 280.3878 0002177  18.2253 341.8671 14.34804890320791
